SUPERVIEW NEO-1 03      
1 63125U 25040A   26068.76959279  .00000029  00000+0  42369-5 0  9993
2 63125  97.3380 185.5773 0001472 140.3569 219.7775 15.21682826 57064
KUIPER-00055            
1 64515U 25134R   26068.90209541  .00019176  00000+0  87667-3 0  9998
2 64515  51.8904 178.7702 0001526  14.9809 345.1216 15.20562207 40856
